{
    "links": {
        "self": "http://www.neowsapp.com/rest/v1/neo/3766071?api_key=iIulBulltgU6a56xZRHN4H3l9WmuAYTsLGpBGhQ2"
    },
    "id": "3766071",
    "neo_reference_id": "3766071",
    "name": "(2016 YS)",
    "designation": "2016 YS",
    "nasa_jpl_url": "http://ssd.jpl.nasa.gov/sbdb.cgi?sstr=3766071",
    "absolute_magnitude_h": 25.0,
    "estimated_diameter": {
        "kilometers": {
            "estimated_diameter_min": 0.02658,
            "estimated_diameter_max": 0.0594346868
        },
        "meters": {
            "estimated_diameter_min": 26.58,
            "estimated_diameter_max": 59.4346868419
        },
        "miles": {
            "estimated_diameter_min": 0.0165160412,
            "estimated_diameter_max": 0.0369309908
        },
        "feet": {
            "estimated_diameter_min": 87.2047272,
            "estimated_diameter_max": 194.9956979785
        }
    },
    "is_potentially_hazardous_asteroid": false,
    "close_approach_data": [
        {
            "close_approach_date": "2016-12-23",
            "close_approach_date_full": "2016-Dec-23 03:02",
            "epoch_date_close_approach": 1482462120000,
            "relative_velocity": {
                "kilometers_per_second": "8.4656650528",
                "kilometers_per_hour": "30476.3941899174",
                "miles_per_hour": "18936.8461565073"
            },
            "miss_distance": {
                "astronomical": "0.0100833883",
                "lunar": "3.9224380487",
                "kilometers": "1508453.412062921",
                "miles": "937309.4866374698"
            },
            "orbiting_body": "Earth"
        },
        {
            "close_approach_date": "2016-12-23",
            "close_approach_date_full": "2016-Dec-23 10:21",
            "epoch_date_close_approach": 1482488460000,
            "relative_velocity": {
                "kilometers_per_second": "8.4834153352",
                "kilometers_per_hour": "30540.2952067591",
                "miles_per_hour": "18976.5517633332"
            },
            "miss_distance": {
                "astronomical": "0.0098808589",
                "lunar": "3.8436541121",
                "kilometers": "1478155.445210543",
                "miles": "918483.2030217734"
            },
            "orbiting_body": "Moon"
        }
    ],
    "orbital_data": {
        "orbit_id": "5",
        "orbit_determination_date": "2017-04-06 08:21:23",
        "first_observation_date": "2016-12-19",
        "last_observation_date": "2016-12-28",
        "data_arc_in_days": 9,
        "observations_used": 120,
        "orbit_uncertainty": "7",
        "minimum_orbit_intersection": ".000855702",
        "jupiter_tisserand_invariant": "3.216",
        "epoch_osculation": "2459000.5",
        "eccentricity": ".6029946575213295",
        "semi_major_axis": "2.451104955287003",
        "inclination": "2.959079131163203",
        "ascending_node_longitude": "274.6183659366358",
        "orbital_period": "1401.655510659955",
        "perihelion_distance": ".9731017622248829",
        "perihelion_argument": "192.3806537375153",
        "aphelion_distance": "3.929108148349123",
        "perihelion_time": "2459160.261234823477",
        "mean_anomaly": "318.9670613791746",
        "mean_motion": ".2568391429007386",
        "equinox": "J2000",
        "orbit_class": {
            "orbit_class_type": "APO",
            "orbit_class_description": "Near-Earth asteroid orbits which cross the Earth’s orbit similar to that of 1862 Apollo",
            "orbit_class_range": "a (semi-major axis) > 1.0 AU; q (perihelion) < 1.017 AU"
        }
    },
    "is_sentry_object": false
}